IRIDIUM 36              
1 24967U 97056C   24142.93817219  .00001078  00000+0  35882-3 0  9992
2 24967  86.3958 337.3198 0002079  92.6841 267.4594 14.36806099396024
IRIDIUM 39              
1 25042U 97069D   24142.74856783  .00001335  00000+0  35376-3 0  9993
2 25042  86.3947  18.8675 0018530 165.9923 194.1799 14.47952579392297
IRIDIUM 38              
1 25043U 97069E   24142.74507801  .00001041  00000+0  34305-3 0  9993
2 25043  86.3991  37.7717 0001383  31.2469 328.8810 14.37262294389712
IRIDIUM 42              
1 25077U 97077A   24142.76660726  .00000905  00000+0  30751-3 0  9996
2 25077  86.3992  43.4506 0001938  70.1907 289.9498 14.35563223385028
IRIDIUM 45              
1 25104U 97082A   24142.78677695  .00013916  00000+0  78510-3 0  9999
2 25104  86.3760 234.6305 0159261 336.1056  23.2838 15.02788778392895
IRIDIUM 24              
1 25105U 97082B   24142.84892806  .00001343  00000+0  41046-3 0  9995
2 25105  86.3924 246.0137 0009422 294.2764  65.7451 14.41177689386835
IRIDIUM 51              
1 25262U 98018A   24142.81872221  .00019174  00000+0  90463-3 0  9993
2 25262  86.3985 244.5120 0144709 279.7426  78.7495 15.10433180387439
